OBJECT_NAME,OBJECT_ID,EPOCH,MEAN_MOTION,ECCENTRICITY,INCLINATION,RA_OF_ASC_NODE,ARG_OF_PERICENTER,MEAN_ANOMALY,EPHEMERIS_TYPE,CLASSIFICATION_TYPE,NORAD_CAT_ID,ELEMENT_SET_NO,REV_AT_EPOCH,BSTAR,MEAN_MOTION_DOT,MEAN_MOTION_DDOT
BEIDOU-2 IGSO-5 (C10),2011-073A,2026-06-15T18:37:35.942880,1.00273002,.01139292,47.6807,271.5633,221.6546,141.9816,0,U,37948,999,5312,0,-.167E-5,0
LUCH 5A (SDCM/PRN 140),2011-074B,2026-06-15T12:12:38.850336,1.00270016,.00021627,8.7499,73.8320,22.2945,157.7802,0,U,37951,999,5303,0,-.54E-6,0
BEIDOU-2 G5 (C05),2012-008A,2026-06-15T16:45:44.815104,1.00271399,.000913,3.5693,69.7032,272.8023,231.5622,0,U,38091,999,5235,0,.57E-6,0
BEIDOU-2 M3 (C11),2012-018A,2026-06-15T13:52:01.691904,1.86229832,.00200938,55.7595,304.9299,274.1057,85.6465,0,U,38250,999,9591,0,-.71E-6,0
BEIDOU-2 M4 (C12),2012-018B,2026-06-13T08:41:38.889888,1.86229521,.00112871,55.6617,304.2191,276.0779,83.7740,0,U,38251,999,9587,0,-.7E-6,0
SES-5 (EGNOS/PRN 136),2012-036A,2026-06-15T13:05:07.027008,1.00271492,.00017848,0.0490,313.0468,131.8566,20.1824,0,U,38652,999,4444,0,.36E-6,0
BEIDOU-2 M6 (C14),2012-050B,2026-06-13T01:43:42.616992,1.86230840,.0013772,56.5408,63.0305,356.7295,3.2873,0,U,38775,999,9323,0,-.56E-6,0
GSAT-10 (GAGAN/PRN 128),2012-051B,2026-06-15T20:17:58.696800,1.00269957,.00077707,0.0840,262.9067,184.4234,204.2991,0,U,38779,999,5008,0,-.163E-5,0
GPS BIIF-3  (PRN 24),2012-053A,2026-06-15T07:43:34.504032,2.00567382,.01801906,53.5856,143.6757,65.7282,296.1113,0,U,38833,999,9940,0,.42E-6,0
GSAT0103 (GALILEO-FM3),2012-055A,2026-06-14T13:01:25.557888,1.70473336,.00049172,55.8050,101.6182,305.1909,54.7190,0,U,38857,999,8496,0,-.11E-6,0
BEIDOU-2 G6 (C02),2012-059A,2026-06-15T20:18:13.673376,1.00272204,.0009592,4.4170,73.5329,324.3186,254.8650,0,U,38953,999,4989,0,-.178E-5,0
LUCH 5B (SDCM/PRN 125),2012-061A,2026-06-15T23:14:56.884416,1.00272153,.00025217,10.4794,49.8909,151.7333,35.0817,0,U,38977,999,4959,0,-.144E-5,0
COSMOS 2485 (747),2013-019A,2026-06-15T00:47:27.248064,2.13103342,.0023249,65.4185,73.6770,234.2304,125.5797,0,U,39155,999,10223,0,-.25E-6,0
GPS BIIF-4  (PRN 27),2013-023A,2026-06-14T16:33:59.172480,2.00563387,.01415422,54.5060,269.0754,51.0316,310.2489,0,U,39166,999,9583,0,-.18E-6,0
IRNSS-1A,2013-034A,2026-06-09T14:20:49.169184,1.00272948,.00174117,35.7049,63.9797,184.2474,279.8453,0,U,39199,999,4729,0,.7E-6,0
GPS BIIF-5  (PRN 30),2014-008A,2026-06-15T16:32:14.183520,2.00559635,.0084226,53.6544,149.3807,231.2560,127.9653,0,U,39533,999,8965,0,.47E-6,0
ASTRA 5B (EGNOS/PRN 123),2014-011B,2026-06-15T22:34:03.678240,1.00272921,.00017503,0.0456,338.9519,95.6083,191.6711,0,U,39617,999,4465,0,.138E-5,0
COSMOS 2492 (754),2014-012A,2026-06-14T01:16:45.888096,2.13103207,.00104533,65.2995,314.0428,325.1473,34.7685,0,U,39620,999,9517,0,-.53E-6,0
IRNSS-1B,2014-017A,2026-06-14T18:30:17.178624,1.00275602,.00230633,28.9259,240.4448,189.5629,165.7473,0,U,39635,999,4476,0,.132E-5,0
LUCH 5V (SDCM/PRN 141),2014-023A,2026-06-15T18:38:35.846592,1.00274958,.00018285,5.1280,69.7540,47.3233,161.3196,0,U,39727,999,4434,0,-.271E-5,0
GPS BIIF-6  (PRN 06),2014-026A,2026-06-14T23:13:00.495840,2.00561046,.0038185,56.4994,331.6038,326.5886,33.1644,0,U,39741,999,8849,0,-.79E-6,0
COSMOS 2500 (755),2014-032A,2026-06-13T06:49:49.213632,2.13106047,.0007281,65.2352,313.8168,184.1744,175.8059,0,U,40001,999,9337,0,-.51E-6,0
GPS BIIF-7  (PRN 09),2014-045A,2026-06-15T01:25:07.039200,2.00558179,.0033223,55.3519,88.5497,118.2762,242.0482,0,U,40105,999,8603,0,-.28E-6,0
GSAT0201 (GALILEO 5),2014-050A,2026-06-13T15:27:24.646464,1.85519952,.16739532,48.8793,273.5817,179.2575,181.0766,0,U,40128,999,7825,0,-.43E-6,0
GSAT0202 (GALILEO 6),2014-050B,2026-06-14T23:27:41.032800,1.85520518,.1675464,48.8947,272.6125,180.0339,180.0074,0,U,40129,999,8044,0,-.39E-6,0
IRNSS-1C,2014-061A,2026-06-15T20:17:51.209376,1.00269545,.00227242,6.5145,88.9566,2.2755,200.3394,0,U,40269,999,4267,0,-.164E-5,0
GPS BIIF-8  (PRN 03),2014-068A,2026-06-12T22:26:25.265760,2.00575830,.00669623,56.9847,31.1185,70.4280,290.3526,0,U,40294,999,8512,0,-.61E-6,0
COSMOS 2501 (702K),2014-075A,2026-06-15T10:10:06.240576,2.13101307,.00226179,63.6162,190.4330,212.3398,147.5841,0,U,40315,999,8981,0,.87E-6,0
GPS BIIF-9  (PRN 26),2015-013A,2026-06-13T13:44:01.627584,2.00551527,.01094304,53.1681,204.3272,40.1118,320.7798,0,U,40534,999,8175,0,.93E-6,0
GSAT0203 (GALILEO 7),2015-017A,2026-06-15T10:52:25.074336,1.70475984,.00020923,56.7863,341.6427,278.6810,81.2938,0,U,40544,999,6917,0,-.83E-6,0
GSAT0204 (GALILEO 8),2015-017B,2026-06-14T12:51:23.627232,1.70475571,.00019104,56.7953,341.6863,248.0709,111.9109,0,U,40545,999,3220,0,-.79E-6,0
