BEIDOU-2 IGSO-5         
1 37948U 11073A   26166.77611045 -.00000167  00000+0  00000+0 0  9998
2 37948  47.6807 271.5633 0113929 221.6546 141.9816  1.00273002 53129
LUCH-5A                 
1 37951U 11074B   26166.50878299 -.00000054  00000+0  00000+0 0  9995
2 37951   8.7499  73.8320 0002162  22.2945 157.7802  1.00270016 53030
BEIDOU-2 G5             
1 38091U 12008A   26166.69843536  .00000057  00000+0  00000+0 0  9997
2 38091   3.5693  69.7032 0009130 272.8023 231.5622  1.00271399 52351
BEIDOU-2 M3             
1 38250U 12018A   26166.57779736 -.00000071  00000+0  00000+0 0  9999
2 38250  55.7595 304.9299 0020093 274.1057  85.6465  1.86229832 95911
BEIDOU-2 M4             
1 38251U 12018B   26164.36225567 -.00000070  00000+0  00000+0 0  9992
2 38251  55.6617 304.2191 0011287 276.0779  83.7740  1.86229521 95872
SES-5                   
1 38652U 12036A   26166.54522022  .00000036  00000+0  00000+0 0  9996
2 38652   0.0490 313.0468 0001784 131.8566  20.1824  1.00271492 44443
BEIDOU-2 M6             
1 38775U 12050B   26164.07202103 -.00000056  00000+0  00000+0 0  9992
2 38775  56.5408  63.0305 0013772 356.7295   3.2873  1.86230840 93236
GSAT-10                 
1 38779U 12051B   26166.84581825 -.00000163  00000+0  00000+0 0  9994
2 38779   0.0840 262.9067 0007770 184.4234 204.2991  1.00269957 50086
NAVSTAR 67 (USA 239)    
1 38833U 12053A   26166.32192713  .00000042  00000+0  00000+0 0  9999
2 38833  53.5856 143.6757 0180190  65.7282 296.1113  2.00567382 99409
GSAT0103 (GALILEO-FM3)  
1 38857U 12055A   26165.54265692 -.00000011  00000+0  00000+0 0  9994
2 38857  55.8050 101.6182 0004917 305.1909  54.7190  1.70473336 84960
BEIDOU-2 G6             
1 38953U 12059A   26166.84599159 -.00000178  00000+0  00000+0 0  9991
2 38953   4.4170  73.5329 0009592 324.3186 254.8650  1.00272204 49895
LUCH-5B                 
1 38977U 12061A   26166.96871394 -.00000144  00000+0  00000+0 0  9990
2 38977  10.4794  49.8909 0002521 151.7333  35.0817  1.00272153 49595
COSMOS 2485 [GLONASS-M] 
1 39155U 13019A   26166.03295426 -.00000025  00000+0  00000+0 0  9995
2 39155  65.4185  73.6770 0023249 234.2304 125.5797  2.13103342102235
NAVSTAR 68 (USA 242)    
1 39166U 13023A   26165.69026820 -.00000018  00000+0  00000+0 0  9995
2 39166  54.5060 269.0754 0141542  51.0316 310.2489  2.00563387 95839
IRNSS-1A                
1 39199U 13034A   26160.59779131  .00000070  00000+0  00000+0 0  9994
2 39199  35.7049  63.9797 0017411 184.2474 279.8453  1.00272948 47299
NAVSTAR 69 (USA 248)    
1 39533U 14008A   26166.68905305  .00000047  00000+0  00000+0 0  9992
2 39533  53.6544 149.3807 0084226 231.2560 127.9653  2.00559635 89651
ASTRA 5B                
1 39617U 14011B   26166.94032035  .00000138  00000+0  00000+0 0  9990
2 39617   0.0456 338.9519 0001750  95.6083 191.6711  1.00272921 44654
COSMOS 2492 [GLONASS-M] 
1 39620U 14012A   26165.05330889 -.00000053  00000+0  00000+0 0  9991
2 39620  65.2995 314.0428 0010453 325.1473  34.7685  2.13103207 95172
IRNSS-1B                
1 39635U 14017A   26165.77103216  .00000132  00000+0  00000+0 0  9990
2 39635  28.9259 240.4448 0023063 189.5629 165.7473  1.00275602 44760
LUCH-5V                 
1 39727U 14023A   26166.77680378 -.00000271  00000+0  00000+0 0  9994
2 39727   5.1280  69.7540 0001828  47.3233 161.3196  1.00274958 44346
NAVSTAR 70 (USA 251)    
1 39741U 14026A   26165.96736685 -.00000079  00000+0  00000+0 0  9992
2 39741  56.4994 331.6038 0038185 326.5886  33.1644  2.00561046 88494
COSMOS 2500 [GLONASS-M] 
1 40001U 14032A   26164.28459738 -.00000051  00000+0  00000+0 0  9995
2 40001  65.2352 313.8168 0007281 184.1744 175.8059  2.13106047 93378
NAVSTAR 71 (USA 256)    
1 40105U 14045A   26166.05910925 -.00000028  00000+0  00000+0 0  9995
2 40105  55.3519  88.5497 0033223 118.2762 242.0482  2.00558179 86037
GSAT0201 (GALILEO 5)    
1 40128U 14050A   26164.64403526 -.00000043  00000+0  00000+0 0  9990
2 40128  48.8793 273.5817 1673953 179.2575 181.0766  1.85519952 78255
GSAT0202 (GALILEO 6)    
1 40129U 14050B   26165.97755825 -.00000039  00000+0  00000+0 0  9995
2 40129  48.8947 272.6125 1675464 180.0339 180.0074  1.85520518 80441
IRNSS-1C                
1 40269U 14061A   26166.84573159 -.00000164  00000+0  00000+0 0  9996
2 40269   6.5145  88.9566 0022724   2.2755 200.3394  1.00269545 42676
NAVSTAR 72 (USA 258)    
1 40294U 14068A   26163.93501465 -.00000061  00000+0  00000+0 0  9995
2 40294  56.9847  31.1185 0066962  70.4280 290.3526  2.00575830 85122
COSMOS 2501 [GLONASS-K] 
1 40315U 14075A   26166.42368334  .00000087  00000+0  00000+0 0  9997
2 40315  63.6162 190.4330 0022617 212.3398 147.5841  2.13101307 89819
NAVSTAR 73 (USA 260)    
1 40534U 15013A   26164.57224106  .00000093  00000+0  00000+0 0  9992
2 40534  53.1681 204.3272 0109430  40.1118 320.7798  2.00551527 81758
GSAT0203 (GALILEO 7)    
1 40544U 15017A   26166.45306799 -.00000083  00000+0  00000+0 0  9995
2 40544  56.7863 341.6427 0002092 278.6810  81.2938  1.70475984 69175
GSAT0204 (GALILEO 8)    
1 40545U 15017B   26165.53569013 -.00000079  00000+0  00000+0 0  9999
2 40545  56.7953 341.6863 0001910 248.0709 111.9109  1.70475571 32203
